{
  "type": "FeatureCollection",
  "features": [
    {
      "type": "Feature",
      "properties": {
        "norad_id": 59626,
        "name": "LEGION 2",
        "group": "resource",
        "lat": -29.033669073312414,
        "lon": 64.31651861541525,
        "alt_km": 519.0747443564196,
        "timestamp": "2025-12-11T08:58:26.772174+00:00",
        "meta_object_name": "LEGION 2",
        "meta_object_id": "2024-081B",
        "meta_epoch": "2025-12-11T04:21:07.513344",
        "meta_mean_motion": 15.16465355,
        "meta_eccentricity": 0.0005789,
        "meta_inclination": 97.5212,
        "meta_ra_of_asc_node": 59.9199,
        "meta_arg_of_pericenter": 300.1934,
        "meta_mean_anomaly": 59.8725,
        "meta_ephemeris_type": 0,
        "meta_classification_type": "U",
        "meta_norad_cat_id": 59626,
        "meta_element_set_no": 999,
        "meta_rev_at_epoch": 8904,
        "meta_bstar": 0.00038887,
        "meta_mean_motion_dot": 7.506e-05,
        "meta_mean_motion_ddot": 0,
        "tle_line1": "1 59626U 24081B   25345.18133696  .00007506  00000+0  38887-3 0  9993",
        "tle_line2": "2 59626  97.5212  59.9199 0005789 300.1934  59.8725 15.16465355 89045"
      },
      "geometry": {
        "type": "Point",
        "coordinates": [
          64.31651861541525,
          -29.033669073312414
        ]
      }
    },
    {
      "type": "Feature",
      "properties": {
        "norad_id": 60182,
        "name": "ALOS-4 (DAICHI-4)",
        "group": "resource",
        "lat": 10.142213822536963,
        "lon": -98.33217085520373,
        "alt_km": 632.2286601191772,
        "timestamp": "2025-12-11T08:58:26.772184+00:00",
        "meta_object_name": "ALOS-4 (DAICHI-4)",
        "meta_object_id": "2024-123A",
        "meta_epoch": "2025-12-10T20:50:51.532800",
        "meta_mean_motion": 14.79478132,
        "meta_eccentricity": 0.0001419,
        "meta_inclination": 97.9225,
        "meta_ra_of_asc_node": 79.7424,
        "meta_arg_of_pericenter": 101.2045,
        "meta_mean_anomaly": 258.9326,
        "meta_ephemeris_type": 0,
        "meta_classification_type": "U",
        "meta_norad_cat_id": 60182,
        "meta_element_set_no": 999,
        "meta_rev_at_epoch": 7803,
        "meta_bstar": 0.00039567,
        "meta_mean_motion_dot": 2.905e-05,
        "meta_mean_motion_ddot": 0,
        "tle_line1": "1 60182U 24123A   25344.86865200  .00002905  00000+0  39567-3 0  9990",
        "tle_line2": "2 60182  97.9225  79.7424 0001419 101.2045 258.9326 14.79478132 78033"
      },
      "geometry": {
        "type": "Point",
        "coordinates": [
          -98.33217085520373,
          10.142213822536963
        ]
      }
    },
    {
      "type": "Feature",
      "properties": {
        "norad_id": 60452,
        "name": "LEGION 3",
        "group": "resource",
        "lat": 7.14864055543184,
        "lon": -35.335909409350776,
        "alt_km": 527.8943924163368,
        "timestamp": "2025-12-11T08:58:26.772195+00:00",
        "meta_object_name": "LEGION 3",
        "meta_object_id": "2024-146A",
        "meta_epoch": "2025-12-11T04:11:03.197184",
        "meta_mean_motion": 15.15734328,
        "meta_eccentricity": 0.0014701,
        "meta_inclination": 45.002,
        "meta_ra_of_asc_node": 318.525,
        "meta_arg_of_pericenter": 190.2358,
        "meta_mean_anomaly": 169.8223,
        "meta_ephemeris_type": 0,
        "meta_classification_type": "U",
        "meta_norad_cat_id": 60452,
        "meta_element_set_no": 999,
        "meta_rev_at_epoch": 7349,
        "meta_bstar": 0.00042407,
        "meta_mean_motion_dot": 7.985e-05,
        "meta_mean_motion_ddot": 0,
        "tle_line1": "1 60452U 24146A   25345.17434256  .00007985  00000+0  42407-3 0  9993",
        "tle_line2": "2 60452  45.0020 318.5250 0014701 190.2358 169.8223 15.15734328 73498"
      },
      "geometry": {
        "type": "Point",
        "coordinates": [
          -35.335909409350776,
          7.14864055543184
        ]
      }
    },
    {
      "type": "Feature",
      "properties": {
        "norad_id": 60453,
        "name": "LEGION 4",
        "group": "resource",
        "lat": 4.757284667406396,
        "lon": 53.97127138184909,
        "alt_km": 514.8614372265974,
        "timestamp": "2025-12-11T08:58:26.772206+00:00",
        "meta_object_name": "LEGION 4",
        "meta_object_id": "2024-146B",
        "meta_epoch": "2025-12-11T04:11:58.227072",
        "meta_mean_motion": 15.15796669,
        "meta_eccentricity": 0.000962,
        "meta_inclination": 45.0386,
        "meta_ra_of_asc_node": 50.267,
        "meta_arg_of_pericenter": 303.0262,
        "meta_mean_anomaly": 56.9693,
        "meta_ephemeris_type": 0,
        "meta_classification_type": "U",
        "meta_norad_cat_id": 60453,
        "meta_element_set_no": 999,
        "meta_rev_at_epoch": 7234,
        "meta_bstar": 0.00041033,
        "meta_mean_motion_dot": 7.72e-05,
        "meta_mean_motion_ddot": 0,
        "tle_line1": "1 60453U 24146B   25345.17497948  .00007720  00000+0  41033-3 0  9992",
        "tle_line2": "2 60453  45.0386  50.2670 0009620 303.0262  56.9693 15.15796669 72348"
      },
      "geometry": {
        "type": "Point",
        "coordinates": [
          53.97127138184909,
          4.757284667406396
        ]
      }
    },
    {
      "type": "Feature",
      "properties": {
        "norad_id": 60989,
        "name": "SENTINEL-2C",
        "group": "resource",
        "lat": 7.481207379168647,
        "lon": -120.9894698592601,
        "alt_km": 790.6915545927504,
        "timestamp": "2025-12-11T08:58:26.772217+00:00",
        "meta_object_name": "SENTINEL-2C",
        "meta_object_id": "2024-157A",
        "meta_epoch": "2025-12-11T04:48:53.226720",
        "meta_mean_motion": 14.3081658,
        "meta_eccentricity": 0.0001195,
        "meta_inclination": 98.5683,
        "meta_ra_of_asc_node": 57.7053,
        "meta_arg_of_pericenter": 97.5952,
        "meta_mean_anomaly": 262.5366,
        "meta_ephemeris_type": 0,
        "meta_classification_type": "U",
        "meta_norad_cat_id": 60989,
        "meta_element_set_no": 999,
        "meta_rev_at_epoch": 6610,
        "meta_bstar": 0.00010289,
        "meta_mean_motion_dot": 2.26e-06,
        "meta_mean_motion_ddot": 0,
        "tle_line1": "1 60989U 24157A   25345.20061605  .00000226  00000+0  10289-3 0  9992",
        "tle_line2": "2 60989  98.5683  57.7053 0001195  97.5952 262.5366 14.30816580 66102"
      },
      "geometry": {
        "type": "Point",
        "coordinates": [
          -120.9894698592601,
          7.481207379168647
        ]
      }
    },
    {
      "type": "Feature",
      "properties": {
        "norad_id": 61735,
        "name": "IONOSFERA-M 1",
        "group": "resource",
        "lat": 60.284142338681676,
        "lon": 50.8707137574068,
        "alt_km": 810.3674565436377,
        "timestamp": "2025-12-11T08:58:26.772227+00:00",
        "meta_object_name": "IONOSFERA-M 1",
        "meta_object_id": "2024-199A",
        "meta_epoch": "2025-12-11T05:02:36.907296",
        "meta_mean_motion": 14.2271348,
        "meta_eccentricity": 0.0001034,
        "meta_inclination": 98.7411,
        "meta_ra_of_asc_node": 215.0701,
        "meta_arg_of_pericenter": 24.1301,
        "meta_mean_anomaly": 335.9926,
        "meta_ephemeris_type": 0,
        "meta_classification_type": "U",
        "meta_norad_cat_id": 61735,
        "meta_element_set_no": 999,
        "meta_rev_at_epoch": 10097,
        "meta_bstar": 6.6116e-05,
        "meta_mean_motion_dot": 1.04e-06,
        "meta_mean_motion_ddot": 0,
        "tle_line1": "1 61735U 24199A   25345.21014939  .00000104  00000+0  66116-4 0  9993",
        "tle_line2": "2 61735  98.7411 215.0701 0001034  24.1301 335.9926 14.22713480100975"
      },
      "geometry": {
        "type": "Point",
        "coordinates": [
          50.8707137574068,
          60.284142338681676
        ]
      }
    },
    {
      "type": "Feature",
      "properties": {
        "norad_id": 61736,
        "name": "IONOSFERA-M 2",
        "group": "resource",
        "lat": -57.87635158140282,
        "lon": -130.67215346712928,
        "alt_km": 824.3877287311798,
        "timestamp": "2025-12-11T08:58:26.772238+00:00",
        "meta_object_name": "IONOSFERA-M 2",
        "meta_object_id": "2024-199B",
        "meta_epoch": "2025-12-11T04:11:14.193312",
        "meta_mean_motion": 14.22715671,
        "meta_eccentricity": 0.0001605,
        "meta_inclination": 98.7403,
        "meta_ra_of_asc_node": 214.9472,
        "meta_arg_of_pericenter": 112.7356,
        "meta_mean_anomaly": 247.3992,
        "meta_ephemeris_type": 0,
        "meta_classification_type": "U",
        "meta_norad_cat_id": 61736,
        "meta_element_set_no": 999,
        "meta_rev_at_epoch": 10409,
        "meta_bstar": 6.9145e-05,
        "meta_mean_motion_dot": 1.11e-06,
        "meta_mean_motion_ddot": 0,
        "tle_line1": "1 61736U 24199B   25345.17446983  .00000111  00000+0  69145-4 0  9990",
        "tle_line2": "2 61736  98.7403 214.9472 0001605 112.7356 247.3992 14.22715671104098"
      },
      "geometry": {
        "type": "Point",
        "coordinates": [
          -130.67215346712928,
          -57.87635158140282
        ]
      }
    }
  ]
}